
# Worst residual: 70.74 km
# MJD 59557.000000 (2021 Dec  9  0:00)
A10DMjY = A10DOip = ZTF0NUM
1 89945U 00000ACC 21343.49919926  .00000000  00000-0  00000-0 0 14511
2 89945 020.7366 023.9969 7106612 244.0310 219.3318 00.96318920    01

# Worst residual: 54.44 km
# MJD 59558.000000 (2021 Dec 10  0:00)
A10DMjY = A10DOip = ZTF0NUM
1 89945U 00000ACC 21344.49919926  .00000000  00000-0  00000-0 0 14512
2 89945 020.7798 024.1851 7117267 244.5294 205.8897 00.96285954    09

# Worst residual: 53.50 km
# MJD 59559.000000 (2021 Dec 11  0:00)
A10DMjY = A10DOip = ZTF0NUM
1 89945U 00000ACC 21345.49919926  .00000000  00000-0  00000-0 0 14513
2 89945 020.8186 024.3534 7128858 245.0421 192.4654 00.96278648    01

# Worst residual: 50.74 km
# MJD 59560.000000 (2021 Dec 12  0:00)
A10DMjY = A10DOip = ZTF0NUM
1 89945U 00000ACC 21346.49919926  .00000000  00000-0  00000-0 0 14514
2 89945 020.8670 024.5682 7140989 245.5146 179.0380 00.96280563    09

# Worst residual: 57.92 km
# MJD 59561.000000 (2021 Dec 13  0:00)
A10DMjY = A10DOip = ZTF0NUM
1 89945U 00000ACC 21347.49919926  .00000000  00000-0  00000-0 0 14986
2 89945 020.8900 024.6887 7141513 245.7618 167.0240 00.96310778    07

# Worst residual: 87.95 km
# MJD 59562.000000 (2021 Dec 14  0:00)
A10DMjY = A10DOip = ZTF0NUM
1 89945U 00000ACC 21348.49919926  .00000000  00000-0  00000-0 0 14987
2 89945 020.9210 024.8486 7157539 246.2736 153.6434 00.96346658    03

# Worst residual: 136.69 km
# MJD 59563.000000 (2021 Dec 15  0:00)
A10DMjY = A10DOip = ZTF0NUM
1 89945U 00000ACC 21349.49919926  .00000000  00000-0  00000-0 0 14988
2 89945 020.9549 025.0269 7171202 246.7487 140.2842 00.96388514    03

# Worst residual: 177.35 km
# MJD 59564.000000 (2021 Dec 16  0:00)
A10DMjY = A10DOip = ZTF0NUM
1 89945U 00000ACC 21350.49919926  .00000000  00000-0  00000-0 0 14980
2 89945 020.9864 025.1986 7183782 247.2331 126.9068 00.96431600    06

# Worst residual: 180.27 km
# MJD 59565.000000 (2021 Dec 17  0:00)
A10DMjY = A10DOip = ZTF0NUM
1 89945U 00000ACC 21351.49919926  .00000000  00000-0  00000-0 0 14981
2 89945 021.0230 025.3575 7198018 247.7251 113.5604 00.96506719    07

# Worst residual: 183.61 km
# MJD 59566.000000 (2021 Dec 18  0:00)
A10DMjY = A10DOip = ZTF0NUM
1 89945U 00000ACC 21352.49919926  .00000000  00000-0  00000-0 0 14982
2 89945 021.0486 025.5197 7207467 248.1987 100.2443 00.96568540    06

# Worst residual: 175.78 km
# MJD 59567.000000 (2021 Dec 19  0:00)
A10DMjY = A10DOip = ZTF0NUM
1 89945U 00000ACC 21353.49919926  .00000000  00000-0  00000-0 0 14983
2 89945 021.0771 025.6757 7216371 248.6875 086.9278 00.96637975    06

# Worst residual: 139.35 km
# MJD 59568.000000 (2021 Dec 20  0:00)
A10DMjY = A10DOip = ZTF0NUM
1 89945U 00000ACC 21354.49919926  .00000000  00000-0  00000-0 0 14984
2 89945 021.1026 025.8168 7225342 249.1730 073.6637 00.96715979    05

# Worst residual: 142.76 km
# MJD 59569.000000 (2021 Dec 21  0:00)
A10DMjY = A10DOip = ZTF0NUM
1 89945U 00000ACC 21355.49919926  .00000000  00000-0  00000-0 0 14985
2 89945 021.1304 025.9732 7230342 249.6580 060.4127 00.96783861    09

# Worst residual: 140.52 km
# MJD 59570.000000 (2021 Dec 22  0:00)
A10DMjY = A10DOip = ZTF0NUM
1 89945U 00000ACC 21356.49919926  .00000000  00000-0  00000-0 0 14986
2 89945 021.1551 026.1118 7235527 250.1626 047.1624 00.96843930    00

# Worst residual: 123.33 km
# MJD 59571.000000 (2021 Dec 23  0:00)
A10DMjY = A10DOip = ZTF0NUM
1 89945U 00000ACC 21357.49919926  .00000000  00000-0  00000-0 0 14987
2 89945 021.1729 026.2277 7241294 250.6819 033.9455 00.96889074    05

# Worst residual: 108.28 km
# MJD 59572.000000 (2021 Dec 24  0:00)
A10DMjY = A10DOip = ZTF0NUM
1 89945U 00000ACC 21358.49919926  .00000000  00000-0  00000-0 0 14988
2 89945 021.2014 026.3705 7244929 251.1752 020.7644 00.96921194    04

# Worst residual: 118.49 km
# MJD 59573.000000 (2021 Dec 25  0:00)
A10DMjY = A10DOip = ZTF0NUM
1 89945U 00000ACC 21359.49919926  .00000000  00000-0  00000-0 0 14989
2 89945 021.2205 026.4804 7250966 251.7022 007.5886 00.96920572    01

# Worst residual: 138.42 km
# MJD 59574.000000 (2021 Dec 26  0:00)
A10DMjY = A10DOip = ZTF0NUM
1 89945U 00000ACC 21360.49919926  .00000000  00000-0  00000-0 0 14981
2 89945 021.2339 026.5970 7255927 252.2085 354.4566 00.96902238    09

# Worst residual: 163.36 km
# MJD 59575.000000 (2021 Dec 27  0:00)
A10DMjY = A10DOip = ZTF0NUM
1 89945U 00000ACC 21361.49919926  .00000000  00000-0  00000-0 0 14982
2 89945 021.2630 026.7102 7259875 252.7281 341.3328 00.96873048    08

# Worst residual: 165.05 km
# MJD 59576.000000 (2021 Dec 28  0:00)
A10DMjY = A10DOip = ZTF0NUM
1 89945U 00000ACC 21362.49919926  .00000000  00000-0  00000-0 0 14983
2 89945 021.2814 026.8097 7264873 253.2499 328.2415 00.96826103    08

# Worst residual: 154.99 km
# MJD 59577.000000 (2021 Dec 29  0:00)
A10DMjY = A10DOip = ZTF0NUM
1 89945U 00000ACC 21363.49919926  .00000000  00000-0  00000-0 0 14984
2 89945 021.2988 026.9035 7268368 253.7601 315.2054 00.96767334    01

# Worst residual: 175.41 km
# MJD 59578.000000 (2021 Dec 30  0:00)
A10DMjY = A10DOip = ZTF0NUM
1 89945U 00000ACC 21364.49919926  .00000000  00000-0  00000-0 0 14985
2 89945 021.3128 026.9837 7271382 254.2890 302.1644 00.96694563    07

# Worst residual: 182.42 km
# MJD 59579.000000 (2021 Dec 31  0:00)
A10DMjY = A10DOip = ZTF0NUM
1 89945U 00000ACC 21365.49919926  .00000000  00000-0  00000-0 0 14986
2 89945 021.3298 027.0666 7272318 254.8116 289.1345 00.96652930    08

# Worst residual: 188.95 km
# MJD 59580.000000 (2022 Jan  1  0:00)
A10DMjY = A10DOip = ZTF0NUM
1 89945U 00000ACC 22001.49919926  .00000000  00000-0  00000-0 0 14984
2 89945 021.3387 027.1449 7272623 255.3222 276.1488 00.96588428    04

# Worst residual: 179.31 km
# MJD 59581.000000 (2022 Jan  2  0:00)
A10DMjY = A10DOip = ZTF0NUM
1 89945U 00000ACC 22002.49919926  .00000000  00000-0  00000-0 0 14985
2 89945 021.3562 027.2305 7270823 255.8423 263.1145 00.96534306    01

# Worst residual: 142.15 km
# MJD 59582.000000 (2022 Jan  3  0:00)
A10DMjY = A10DOip = ZTF0NUM
1 89945U 00000ACC 22003.49919926  .00000000  00000-0  00000-0 0 14986
2 89945 021.3682 027.2653 7268748 256.4172 250.0489 00.96489582    02
